[{"OBJECT_NAME":"OBJECT AL","OBJECT_ID":"2023-085AL","EPOCH":"2026-03-09T22:26:04.970400","MEAN_MOTION":15.31857284,"ECCENTRICITY":0.000802,"INCLINATION":97.4839,"RA_OF_ASC_NODE":180.0127,"ARG_OF_PERICENTER":78.7242,"MEAN_ANOMALY":281.49,"EPHEMERIS_TYPE":0,"CLASSIFICATION_TYPE":"U","NORAD_CAT_ID":57038,"ELEMENT_SET_NO":999,"REV_AT_EPOCH":15154,"BSTAR":0.0006591637,"MEAN_MOTION_DOT":0.00020246,"MEAN_MOTION_DDOT":0},{"OBJECT_NAME":"STARLINK-35947","OBJECT_ID":"2025-283F","EPOCH":"2026-03-09T06:06:26.284896","MEAN_MOTION":15.30193502,"ECCENTRICITY":0.00011036,"INCLINATION":53.1613,"RA_OF_ASC_NODE":26.4648,"ARG_OF_PERICENTER":113.3046,"MEAN_ANOMALY":246.8071,"EPHEMERIS_TYPE":0,"CLASSIFICATION_TYPE":"U","NORAD_CAT_ID":66883,"ELEMENT_SET_NO":999,"REV_AT_EPOCH":1579,"BSTAR":0.00083943165,"MEAN_MOTION_DOT":0.0002458,"MEAN_MOTION_DDOT":0}]
